NORAD_CAT_ID,OBJECT_NAME,OBJECT_TYPE,EPOCH,MEAN_MOTION,ECCENTRICITY,INCLINATION,RA_OF_ASC_NODE,ARG_OF_PERICENTER,MEAN_ANOMALY,BSTAR,MEAN_MOTION_DOT,MEAN_MOTION_DDOT,TLE_LINE0,TLE_LINE1,TLE_LINE2,SEMIMAJOR_AXIS,PERIOD,APOGEE,PERIGEE,DECAYED
52987.0,STARLINK-4259,PAYLOAD,2022-09-23 06:00:00,15.08795238,0.0001654,53.2173,15.9173,45.7049,108.5607,0.0038614,0.00061628,0.0,0 STARLINK-4259,1 52987U 22076B   22266.25001157  .00061628  00000-0  38614-2 0  9994,2 52987  53.2173  15.9173 0001654  45.7049 108.5607 15.08795238 12441,6918.017,95.44,541.026,538.738,0.0
52987.0,STARLINK-4259,PAYLOAD,2022-09-23 14:00:01,15.08844145,0.0001878,53.2178,14.4343,45.432,120.3512,-2.4244e-05,-6.74e-06,0.0,0 STARLINK-4259,1 52987U 22076B   22266.58334491 -.00000674  00000-0 -24244-4 0  9992,2 52987  53.2178  14.4343 0001878  45.4320 120.3512 15.08844145 12490,6917.868,95.437,541.0319999999998,538.434,0.0
52987.0,STARLINK-4259,PAYLOAD,2022-09-23 22:00:00,15.08866692,0.0001868,53.2176,12.9375,43.378,134.0003,-0.0010559,-0.00017066,0.0,0 STARLINK-4259,1 52987U 22076B   22266.91667824 -.00017066  00000-0 -10559-2 0  9993,2 52987  53.2176  12.9375 0001868  43.3780 134.0003 15.08866692  1308,6917.799,95.436,540.956,538.372,0.0
52987.0,STARLINK-4259,PAYLOAD,2022-09-24 14:00:01,15.08857607,0.000186,53.2178,9.9453,41.8497,158.8383,-0.00049797,-8.209e-05,0.0,0 STARLINK-4259,1 52987U 22076B   22267.58335648 -.00008209  00000-0 -49797-3 0  9999,2 52987  53.2178   9.9453 0001860  41.8497 158.8383 15.08857607  1304,6917.8269999999975,95.436,540.9780000000002,538.405,0.0
52987.0,STARLINK-4259,PAYLOAD,2022-09-24 22:00:00,15.08872645,0.0001827,53.2178,8.4484,39.1493,173.08599999999996,-0.0038214,-0.00060649,0.0,0 STARLINK-4259,1 52987U 22076B   22267.91667824 -.00060649  00000-0 -38214-2 0  9997,2 52987  53.2178   8.4484 0001827  39.1493 173.0860 15.08872645  1309,6917.781,95.435,540.909,538.382,0.0
52987.0,STARLINK-4259,PAYLOAD,2022-09-25 14:00:01,15.08839805,0.0001991,53.2181,5.4563,40.9552,194.4776,-0.00025716,-4.379e-05,0.0,0 STARLINK-4259,1 52987U 22076B   22268.58334491 -.00004379  00000-0 -25716-3 0  9994,2 52987  53.2181   5.4563 0001991  40.9552 194.4776 15.08839805  1300,6917.880999999999,95.438,541.123,538.369,0.0
52987.0,STARLINK-4259,PAYLOAD,2022-09-25 22:00:01,15.08840942,0.0001881,53.2182,3.9593,38.1623,208.9153,-0.0023118,-0.00036894,0.0,0 STARLINK-4259,1 52987U 22076B   22268.91668981 -.00036894  00000-0 -23118-2 0  9995,2 52987  53.2182   3.9593 0001881  38.1623 208.9153 15.08840942 12848,6917.878000000002,95.437,541.044,538.441,0.0
52987.0,STARLINK-4259,PAYLOAD,2022-09-26 10:00:00,15.08846806,0.0001864,53.2186,1.7151,41.264,43.112,-0.0013186,-0.00021217,0.0,0 STARLINK-4259,1 52987U 22076B   22269.41667824 -.00021217  00000-0 -13186-2 0  9993,2 52987  53.2186   1.7151 0001864  41.2640  43.1120 15.08846806 12919,6917.86,95.437,541.014,538.435,0.0
52987.0,STARLINK-4259,PAYLOAD,2022-09-26 14:00:01,15.08828574,0.0001994,53.2186,0.9678,38.5931,231.5842,0.00095521,0.00014942,0.0,0 STARLINK-4259,1 52987U 22076B   22269.58334491  .00014942  00000-0  95521-3 0  9991,2 52987  53.2186   0.9678 0001994  38.5931 231.5842 15.08828574  1307,6917.915,95.438,541.16,538.401,0.0
52987.0,STARLINK-4259,PAYLOAD,2022-09-26 22:00:00,15.08890226,0.0001939,53.2177,359.4643,37.2161,244.5569,-0.0075717,-0.00118974,0.0,0 STARLINK-4259,1 52987U 22076B   22269.91667824 -.00118974  00000-0 -75717-2 0  9993,2 52987  53.2177 359.4643 0001939  37.2161 244.5569 15.08890226 12991,6917.727,95.434,540.933,538.251,0.0
52987.0,STARLINK-4259,PAYLOAD,2022-09-27 00:00:00,15.08834963,0.0001796,53.2188,359.0962,38.2406,336.4264,-0.0014552,-0.0002336999999999,0.0,0 STARLINK-4259,1 52987U 22076B   22270.00001157 -.00023370  00000-0 -14552-2 0  9991,2 52987  53.2188 359.0962 0001796  38.2406 336.4264 15.08834963  1309,6917.896,95.438,541.003,538.518,0.0
52987.0,STARLINK-4259,PAYLOAD,2022-09-27 06:00:00,15.08818198,0.0001918,53.2188,357.9736,46.9836,246.3761,0.0018627,0.00029464,0.0,0 STARLINK-4259,1 52987U 22076B   22270.25001157  .00029464  00000-0  18627-2 0  9993,2 52987  53.2188 357.9736 0001918  46.9836 246.3761 15.08818198 13041,6917.946999999999,95.439,541.139,538.485,0.0
52987.0,STARLINK-4259,PAYLOAD,2022-09-27 14:00:01,15.08823651,0.0002147,53.2188,356.4791,42.0937,262.8501,0.0012963,0.00020394,0.0,0 STARLINK-4259,1 52987U 22076B   22270.58334491  .00020394  00000-0  12963-2 0  9999,2 52987  53.2188 356.4791 0002147  42.0937 262.8501 15.08823651  1301,6917.93,95.439,541.281,538.31,0.0
52987.0,STARLINK-4259,PAYLOAD,2022-09-27 22:00:01,15.08870513,0.0002052,53.2186,354.9818,42.272,274.3325,-0.00097272,-0.00015749,0.0,0 STARLINK-4259,1 52987U 22076B   22270.91668981 -.00015749  00000-0 -97272-3 0  9997,2 52987  53.2186 354.9818 0002052  42.2720 274.3325 15.08870513  1300,6917.7869999999975,95.436,541.072,538.2330000000002,0.0
52987.0,STARLINK-4259,PAYLOAD,2022-09-28 14:00:01,15.08864042,0.0002035,53.2186,351.9901,38.8061,301.0035,-0.0015676,-0.00025167,0.0,0 STARLINK-4259,1 52987U 22076B   22271.58334491 -.00025167  00000-0 -15676-2 0  9999,2 52987  53.2186 351.9901 0002035  38.8061 301.0035 15.08864042  1306,6917.807,95.436,541.08,538.264,0.0
52987.0,STARLINK-4259,PAYLOAD,2022-09-28 22:00:00,15.08849476,0.0001784,53.2183,350.4926,34.9854,316.4292,-0.0060343,-0.00095084,0.0,0 STARLINK-4259,1 52987U 22076B   22271.91667824 -.00095084  00000-0 -60343-2 0  9991,2 52987  53.2183 350.4926 0001784  34.9854 316.4292 15.08849476  1300,6917.851,95.437,540.951,538.482,0.0
52987.0,STARLINK-4259,PAYLOAD,2022-09-29 06:00:00,15.08798023,0.0001644,53.2185,348.9959,36.5728,326.4029,0.0011236,0.00017619,0.0,0 STARLINK-4259,1 52987U 22076B   22272.25001157  .00017619  00000-0  11236-2 0  9993,2 52987  53.2185 348.9959 0001644  36.5728 326.4029 15.08798023 13340,6918.009,95.44,541.011,538.736,0.0
52987.0,STARLINK-4259,PAYLOAD,2022-09-29 14:00:01,15.08792641,0.0001878,53.2182,347.5013,32.968,341.5631,0.0019668,0.00031112,0.0,0 STARLINK-4259,1 52987U 22076B   22272.58334491  .00031112  00000-0  19668-2 0  9990,2 52987  53.2182 347.5013 0001878  32.9680 341.5631 15.08792641  1309,6918.025,95.441,541.189,538.591,0.0
52987.0,STARLINK-4259,PAYLOAD,2022-09-29 22:00:00,15.08833209,0.0001884,53.2178,345.9924,30.361,355.7259,0.00040323,6.134e-05,0.0,0 STARLINK-4259,1 52987U 22076B   22272.91667824  .00006134  00000-0  40323-3 0  9995,2 52987  53.2178 345.9924 0001884  30.3610 355.7259 15.08833209  1308,6917.901,95.438,541.069,538.4630000000002,0.0
52987.0,STARLINK-4259,PAYLOAD,2022-09-30 06:00:02,15.08834671,0.0001688,53.2178,344.5071,37.8017,359.9127,0.00057541,8.88e-05,0.0,0 STARLINK-4259,1 52987U 22076B   22273.25002315  .00008880  00000-0  57541-3 0  9991,2 52987  53.2178 344.5071 0001688  37.8017 359.9127 15.08834671 13498,6917.897,95.438,540.929,538.594,0.0
52987.0,STARLINK-4259,PAYLOAD,2022-09-30 14:00:01,15.08826835,0.0001923,53.2176,343.0123,33.9712,15.2805,0.0028412,0.00045204,0.0,0 STARLINK-4259,1 52987U 22076B   22273.58334491  .00045204  00000-0  28412-2 0  9995,2 52987  53.2176 343.0123 0001923  33.9712  15.2805 15.08826835  1304,6917.920999999999,95.438,541.116,538.455,0.0
52987.0,STARLINK-4259,PAYLOAD,2022-09-30 22:00:00,15.088713,0.0001829,53.2173,341.5144,36.2879,24.5634,-0.0011912,-0.00019212,0.0,0 STARLINK-4259,1 52987U 22076B   22273.91667824 -.00019212  00000-0 -11912-2 0  9990,2 52987  53.2173 341.5144 0001829  36.2879  24.5634 15.08871300  1302,6917.785,95.436,540.915,538.384,0.0
52987.0,STARLINK-4259,PAYLOAD,2022-10-01 14:00:01,15.08847517,0.0002059,53.2172,338.523,36.634,47.4549,-0.00017384,-3.054e-05,0.0,0 STARLINK-4259,1 52987U 22076B   22274.58334491 -.00003054  00000-0 -17384-3 0  9992,2 52987  53.2172 338.5230 0002059  36.6340  47.4549 15.08847517  1308,6917.857,95.437,541.1469999999998,538.298,0.0
52987.0,STARLINK-4259,PAYLOAD,2022-10-01 22:00:00,15.08843547,0.0001947,53.2171,337.0249,39.2183,56.4806,-0.0036655999999999,-0.00058162,0.0,0 STARLINK-4259,1 52987U 22076B   22274.91667824 -.00058162  00000-0 -36656-2 0  9990,2 52987  53.2171 337.0249 0001947  39.2183  56.4806 15.08843547  1305,6917.87,95.437,541.081,538.388,0.0
52987.0,STARLINK-4259,PAYLOAD,2022-10-02 06:00:00,15.08819824,0.0002017,53.2171,335.5285,43.5208,63.7462,-6.5018e-05,-1.322e-05,0.0,0 STARLINK-4259,1 52987U 22076B   22275.25001157 -.00001322  00000-0 -65018-4 0  9991,2 52987  53.2171 335.5285 0002017  43.5208  63.7462 15.08819824 13801,6917.941999999999,95.439,541.202,538.4119999999998,0.0
52987.0,STARLINK-4259,PAYLOAD,2022-10-02 14:00:01,15.08798747,0.0002211999999999,53.2172,334.0338,38.7751,80.0688,0.0036574,0.00058336,0.0,0 STARLINK-4259,1 52987U 22076B   22275.58334491  .00058336  00000-0  36574-2 0  9995,2 52987  53.2172 334.0338 0002212  38.7751  80.0688 15.08798747  1305,6918.005999999999,95.44,541.4019999999998,538.341,0.0
52987.0,STARLINK-4259,PAYLOAD,2022-10-02 22:00:00,15.08835497,0.0002085999999999,53.2173,332.5357,41.09,89.3303,0.0011495,0.00018051,0.0,0 STARLINK-4259,1 52987U 22076B   22275.91667824  .00018051  00000-0  11495-2 0  9996,2 52987  53.2173 332.5357 0002086  41.0900  89.3303 15.08835497  1302,6917.894,95.438,541.202,538.316,0.0
52987.0,STARLINK-4259,PAYLOAD,2022-10-03 06:00:00,15.08878542,0.0002125,53.2175,331.0394,43.31100000000001,98.6981,-0.002052,-0.00032833,0.0,0 STARLINK-4259,1 52987U 22076B   22276.25001157 -.00032833  00000-0 -20520-2 0  9990,2 52987  53.2175 331.0394 0002125  43.3110  98.6981 15.08878542 13958,6917.763000000001,95.435,541.0980000000002,538.158,0.0
52987.0,STARLINK-4259,PAYLOAD,2022-10-03 14:00:01,15.088259,0.000227,53.2175,329.5445,36.8816,116.7633,0.0030112,0.00047944,0.0,0 STARLINK-4259,1 52987U 22076B   22276.58334491  .00047944  00000-0  30112-2 0  9991,2 52987  53.2175 329.5445 0002270  36.8816 116.7633 15.08825900  1300,6917.9230000000025,95.438,541.359,538.2180000000002,0.0
